IRIDIUM 26              
1 24903U 97043A   25352.19882439  .00000367  00000+0  11643-3 0  9995
2 24903  86.3955  33.2683 0002183  99.0474 261.0971 14.37332023483175
IRIDIUM 22              
1 24907U 97043E   25352.21206851  .00000302  00000+0  96892-4 0  9999
2 24907  86.3959  36.9606 0002318  95.1140 265.0322 14.36125403483181
DUMMY MASS 1            
1 24925U 97048A   25352.18855886  .00000354  00000+0  36209-4 0  9991
2 24925  86.3341  50.1851 0005662 193.3422 166.7654 14.87187677532474
DUMMY MASS 2            
1 24926U 97048B   25352.18144514  .00000343  00000+0  35161-4 0  9995
2 24926  86.3342  51.8303 0005924 209.5648 150.5243 14.86938038532241
IRIDIUM 29              
1 24944U 97051A   25352.23777824  .00000342  00000+0  10958-3 0  9996
2 24944  86.3951  66.6352 0002270  91.5675 268.5782 14.36667345479697
IRIDIUM 33              
1 24946U 97051C   25352.28479362  .00000295  00000+0  96755-4 0  9996
2 24946  86.3868  65.8942 0007699 181.3776 178.7400 14.35041379479143
IRIDIUM 28              
1 24948U 97051E   25352.23455617  .00000337  00000+0  10580-3 0  9998
2 24948  86.3955  64.0469 0002109 109.8725 250.2700 14.37567205480286
IRIDIUM 36              
1 24967U 97056C   25352.23880549  .00000355  00000+0  11147-3 0  9990
2 24967  86.3963  95.6726 0002236 101.3340 258.8110 14.37788997478664
